{
    "{'pincode': 500001}": {
        "error": "",
        "response": {
            "status": 200,
            "message": "Success",
            "noOfItems": 5,
            "result": [
                {
                    "taluk": "Nampally",
                    "pincode": "500001",
                    "districtname": "Hyderabad",
                    "placename": "Gandhi Bhawan (Hyderabad)",
                    "longitude": "78.4348",
                    "statename": "Telangana",
                    "latitude": "17.3733",
                    "accuracy": "1"
                },
                {
                    "taluk": "Hyderabad",
                    "pincode": "500001",
                    "districtname": "Hyderabad",
                    "placename": "Hyderabad G.P.O.",
                    "longitude": "78.4348",
                    "statename": "Telangana",
                    "latitude": "17.3733",
                    "accuracy": "1"
                },
                {
                    "taluk": "Nampally",
                    "pincode": "500001",
                    "districtname": "Hyderabad",
                    "placename": "Moazzampura",
                    "longitude": "78.4348",
                    "statename": "Telangana",
                    "latitude": "17.3733",
                    "accuracy": "1"
                },
                {
                    "taluk": "Nampally",
                    "pincode": "500001",
                    "districtname": "Hyderabad",
                    "placename": "Seetharampet",
                    "longitude": "78.4348",
                    "statename": "Telangana",
                    "latitude": "17.3733",
                    "accuracy": "1"
                },
                {
                    "taluk": "Nampally",
                    "pincode": "500001",
                    "districtname": "Hyderabad",
                    "placename": "State Bank Of Hyderabad",
                    "longitude": "78.4348",
                    "statename": "Telangana",
                    "latitude": "17.3733",
                    "accuracy": "1"
                }
            ]
        }
    },
    "{'pincode': 431135}": {
        "error": "",
        "response": {
            "status": 200,
            "message": "Success",
            "noOfItems": 12,
            "result": [
                {
                    "taluk": "Sillod",
                    "pincode": "431135",
                    "districtname": "Aurangabad",
                    "placename": "Bankinhola",
                    "longitude": "75.84",
                    "statename": "Maharashtra",
                    "latitude": "19.9163",
                    "accuracy": "3"
                },
                {
                    "taluk": "Sillod",
                    "pincode": "431135",
                    "districtname": "Aurangabad",
                    "placename": "Borgaon Kasari",
                    "longitude": "75.6551",
                    "statename": "Maharashtra",
                    "latitude": "20.2328",
                    "accuracy": "4"
                },
                {
                    "taluk": "Sillod",
                    "pincode": "431135",
                    "districtname": "Aurangabad",
                    "placename": "Gavli Tanda",
                    "longitude": "75.84",
                    "statename": "Maharashtra",
                    "latitude": "19.9163",
                    "accuracy": "3"
                },
                {
                    "taluk": "Sillod",
                    "pincode": "431135",
                    "districtname": "Aurangabad",
                    "placename": "Gevrai Shami",
                    "longitude": "75.84",
                    "statename": "Maharashtra",
                    "latitude": "19.9163",
                    "accuracy": "3"
                },
                {
                    "taluk": "Sillod",
                    "pincode": "431135",
                    "districtname": "Aurangabad",
                    "placename": "Kaigaon",
                    "longitude": "75.6307",
                    "statename": "Maharashtra",
                    "latitude": "20.1785",
                    "accuracy": "4"
                },
                {
                    "taluk": "Sillod",
                    "pincode": "431135",
                    "districtname": "Aurangabad",
                    "placename": "Kerhala",
                    "longitude": "75.84",
                    "statename": "Maharashtra",
                    "latitude": "19.9163",
                    "accuracy": "3"
                },
                {
                    "taluk": "Sillod",
                    "pincode": "431135",
                    "districtname": "Aurangabad",
                    "placename": "Nillod",
                    "longitude": "75.84",
                    "statename": "Maharashtra",
                    "latitude": "19.9163",
                    "accuracy": "3"
                },
                {
                    "taluk": "Sillod",
                    "pincode": "431135",
                    "districtname": "Aurangabad",
                    "placename": "Palshi",
                    "longitude": "76.2342",
                    "statename": "Maharashtra",
                    "latitude": "19.3377",
                    "accuracy": "4"
                },
                {
                    "taluk": "Sillod",
                    "pincode": "431135",
                    "districtname": "Aurangabad",
                    "placename": "Sillod Sakhar Karkhana",
                    "longitude": "75.84",
                    "statename": "Maharashtra",
                    "latitude": "19.9163",
                    "accuracy": "3"
                },
                {
                    "taluk": "Sillod",
                    "pincode": "431135",
                    "districtname": "Aurangabad",
                    "placename": "Tanda Bazar",
                    "longitude": "75.84",
                    "statename": "Maharashtra",
                    "latitude": "19.9163",
                    "accuracy": "3"
                },
                {
                    "taluk": "Sillod",
                    "pincode": "431135",
                    "districtname": "Aurangabad",
                    "placename": "Upali",
                    "longitude": "75.84",
                    "statename": "Maharashtra",
                    "latitude": "19.9163",
                    "accuracy": "3"
                },
                {
                    "taluk": "Sillod",
                    "pincode": "431135",
                    "districtname": "Aurangabad",
                    "placename": "Warud Kh",
                    "longitude": "75.84",
                    "statename": "Maharashtra",
                    "latitude": "19.9163",
                    "accuracy": "3"
                }
            ]
        }
    },
    "{'pincode': 431001}": {
        "error": "",
        "response": {
            "status": 200,
            "message": "Success",
            "noOfItems": 7,
            "result": [
                {
                    "taluk": "Aurangabad",
                    "pincode": "431001",
                    "districtname": "Aurangabad",
                    "placename": "Aurangabad (Mh)",
                    "longitude": "75.952",
                    "statename": "Maharashtra",
                    "latitude": "19.7358",
                    "accuracy": "1"
                },
                {
                    "taluk": "Aurangabad",
                    "pincode": "431001",
                    "districtname": "Aurangabad",
                    "placename": "Aurangabad City",
                    "longitude": "75.952",
                    "statename": "Maharashtra",
                    "latitude": "19.7358",
                    "accuracy": "1"
                },
                {
                    "taluk": "Aurangabad",
                    "pincode": "431001",
                    "districtname": "Aurangabad",
                    "placename": "Fazalpura",
                    "longitude": "75.952",
                    "statename": "Maharashtra",
                    "latitude": "19.7358",
                    "accuracy": "1"
                },
                {
                    "taluk": "Aurangabad",
                    "pincode": "431001",
                    "districtname": "Aurangabad",
                    "placename": "Medical College (Aurangabad)",
                    "longitude": "75.952",
                    "statename": "Maharashtra",
                    "latitude": "19.7358",
                    "accuracy": "1"
                },
                {
                    "taluk": "Aurangabad",
                    "pincode": "431001",
                    "districtname": "Aurangabad",
                    "placename": "Samarthnagar",
                    "longitude": "75.952",
                    "statename": "Maharashtra",
                    "latitude": "19.7358",
                    "accuracy": "1"
                },
                {
                    "taluk": "Aurangabad",
                    "pincode": "431001",
                    "districtname": "Aurangabad",
                    "placename": "Saraswati Colony",
                    "longitude": "75.952",
                    "statename": "Maharashtra",
                    "latitude": "19.7358",
                    "accuracy": "1"
                },
                {
                    "taluk": "Aurangabad",
                    "pincode": "431001",
                    "districtname": "Aurangabad",
                    "placename": "Shahaganj (Aurangabad)",
                    "longitude": "75.952",
                    "statename": "Maharashtra",
                    "latitude": "19.7358",
                    "accuracy": "1"
                }
            ]
        }
    },
    "{'pincode': 431118}": {
        "error": "",
        "response": {
            "status": 200,
            "message": "Success",
            "noOfItems": 5,
            "result": [
                {
                    "taluk": "Sillod",
                    "pincode": "431118",
                    "districtname": "Aurangabad",
                    "placename": "Ajantha Caves",
                    "longitude": "76.1331",
                    "statename": "Maharashtra",
                    "latitude": "20.3835",
                    "accuracy": "3"
                },
                {
                    "taluk": "Soegaon",
                    "pincode": "431118",
                    "districtname": "Aurangabad",
                    "placename": "Jamthi",
                    "longitude": "76.9914",
                    "statename": "Maharashtra",
                    "latitude": "19.9269",
                    "accuracy": "4"
                },
                {
                    "taluk": "Soegaon",
                    "pincode": "431118",
                    "districtname": "Aurangabad",
                    "placename": "Palaskheda",
                    "longitude": "75.6854",
                    "statename": "Maharashtra",
                    "latitude": "20.639",
                    "accuracy": "4"
                },
                {
                    "taluk": "Soegaon",
                    "pincode": "431118",
                    "districtname": "Aurangabad",
                    "placename": "Phardapur",
                    "longitude": "75.7225",
                    "statename": "Maharashtra",
                    "latitude": "20.5845",
                    "accuracy": "4"
                },
                {
                    "taluk": "Soegaon",
                    "pincode": "431118",
                    "districtname": "Aurangabad",
                    "placename": "Sawaladbara",
                    "longitude": "76.1331",
                    "statename": "Maharashtra",
                    "latitude": "20.3835",
                    "accuracy": "3"
                }
            ]
        }
    },
    "{'pincode': 504315}": {
        "error": "",
        "response": {
            "status": 200,
            "message": "Success",
            "noOfItems": 0,
            "result": []
        }
    },
    "{'pincode': 504314}": {
        "error": "",
        "response": {
            "status": 200,
            "message": "Success",
            "noOfItems": 0,
            "result": []
        }
    },
    "{'pincode': 504370}": {
        "error": "",
        "response": {
            "status": 200,
            "message": "Success",
            "noOfItems": 0,
            "result": []
        }
    },
    "{'pincode': 504305}": {
        "error": "",
        "response": {
            "status": 200,
            "message": "Success",
            "noOfItems": 0,
            "result": []
        }
    },
    "{'pincode': 110001}": {
        "error": "",
        "response": {
            "status": 200,
            "message": "Success",
            "noOfItems": 21,
            "result": [
                {
                    "taluk": "New Delhi",
                    "pincode": "110001",
                    "districtname": "Central Delhi",
                    "placename": "Baroda House",
                    "longitude": "77.2183",
                    "statename": "Delhi",
                    "latitude": "28.6369",
                    "accuracy": "3"
                },
                {
                    "taluk": "New Delhi",
                    "pincode": "110001",
                    "districtname": "Central Delhi",
                    "placename": "Bengali Market",
                    "longitude": "77.2183",
                    "statename": "Delhi",
                    "latitude": "28.6369",
                    "accuracy": "3"
                },
                {
                    "taluk": "New Delhi",
                    "pincode": "110001",
                    "districtname": "Central Delhi",
                    "placename": "Bhagat Singh Market",
                    "longitude": "77.2183",
                    "statename": "Delhi",
                    "latitude": "28.6369",
                    "accuracy": "3"
                },
                {
                    "taluk": "New Delhi",
                    "pincode": "110001",
                    "districtname": "Central Delhi",
                    "placename": "Connaught Place",
                    "longitude": "77.2211",
                    "statename": "Delhi",
                    "latitude": "28.6331",
                    "accuracy": "4"
                },
                {
                    "taluk": "New Delhi",
                    "pincode": "110001",
                    "districtname": "Central Delhi",
                    "placename": "Constitution House",
                    "longitude": "77.2183",
                    "statename": "Delhi",
                    "latitude": "28.6369",
                    "accuracy": "3"
                },
                {
                    "taluk": "New Delhi",
                    "pincode": "110001",
                    "districtname": "Central Delhi",
                    "placename": "Election Commission",
                    "longitude": "77.2183",
                    "statename": "Delhi",
                    "latitude": "28.6369",
                    "accuracy": "3"
                },
                {
                    "taluk": "New Delhi",
                    "pincode": "110001",
                    "districtname": "Central Delhi",
                    "placename": "Janpath",
                    "longitude": "77.2183",
                    "statename": "Delhi",
                    "latitude": "28.6369",
                    "accuracy": "3"
                },
                {
                    "taluk": "New Delhi",
                    "pincode": "110001",
                    "districtname": "Central Delhi",
                    "placename": "Krishi Bhawan",
                    "longitude": "77.2183",
                    "statename": "Delhi",
                    "latitude": "28.6369",
                    "accuracy": "3"
                },
                {
                    "taluk": "New Delhi",
                    "pincode": "110001",
                    "districtname": "Central Delhi",
                    "placename": "Lady Harding Medical College",
                    "longitude": "77.2183",
                    "statename": "Delhi",
                    "latitude": "28.6369",
                    "accuracy": "3"
                },
                {
                    "taluk": "New Delhi",
                    "pincode": "110001",
                    "districtname": "New Delhi",
                    "placename": "New Delhi G.P.O.",
                    "longitude": "77.2183",
                    "statename": "Delhi",
                    "latitude": "28.6369",
                    "accuracy": "3"
                },
                {
                    "taluk": "New Delhi",
                    "pincode": "110001",
                    "districtname": "Central Delhi",
                    "placename": "North Avenue",
                    "longitude": "77.2183",
                    "statename": "Delhi",
                    "latitude": "28.6369",
                    "accuracy": "3"
                },
                {
                    "taluk": "New Delhi",
                    "pincode": "110001",
                    "districtname": "Central Delhi",
                    "placename": "Parliament House",
                    "longitude": "77.2154",
                    "statename": "Delhi",
                    "latitude": "28.6407",
                    "accuracy": "4"
                },
                {
                    "taluk": "New Delhi",
                    "pincode": "110001",
                    "districtname": "Central Delhi",
                    "placename": "Patiala House",
                    "longitude": "77.2183",
                    "statename": "Delhi",
                    "latitude": "28.6369",
                    "accuracy": "3"
                },
                {
                    "taluk": "New Delhi",
                    "pincode": "110001",
                    "districtname": "Central Delhi",
                    "placename": "Pragati Maidan",
                    "longitude": "77.2183",
                    "statename": "Delhi",
                    "latitude": "28.6369",
                    "accuracy": "3"
                },
                {
                    "taluk": "New Delhi",
                    "pincode": "110001",
                    "districtname": "Central Delhi",
                    "placename": "Pragati Maidan Camp",
                    "longitude": "77.2183",
                    "statename": "Delhi",
                    "latitude": "28.6369",
                    "accuracy": "3"
                },
                {
                    "taluk": "New Delhi",
                    "pincode": "110001",
                    "districtname": "Central Delhi",
                    "placename": "Rail Bhawan",
                    "longitude": "77.2183",
                    "statename": "Delhi",
                    "latitude": "28.6369",
                    "accuracy": "3"
                },
                {
                    "taluk": "New Delhi",
                    "pincode": "110001",
                    "districtname": "Central Delhi",
                    "placename": "Sansad Marg",
                    "longitude": "77.2183",
                    "statename": "Delhi",
                    "latitude": "28.6369",
                    "accuracy": "3"
                },
                {
                    "taluk": "New Delhi",
                    "pincode": "110001",
                    "districtname": "Central Delhi",
                    "placename": "Sansadiya Soudh",
                    "longitude": "77.2183",
                    "statename": "Delhi",
                    "latitude": "28.6369",
                    "accuracy": "3"
                },
                {
                    "taluk": "New Delhi",
                    "pincode": "110001",
                    "districtname": "Central Delhi",
                    "placename": "Secretariat North",
                    "longitude": "77.2183",
                    "statename": "Delhi",
                    "latitude": "28.6369",
                    "accuracy": "3"
                },
                {
                    "taluk": "New Delhi",
                    "pincode": "110001",
                    "districtname": "Central Delhi",
                    "placename": "Shastri Bhawan",
                    "longitude": "77.2183",
                    "statename": "Delhi",
                    "latitude": "28.6369",
                    "accuracy": "3"
                },
                {
                    "taluk": "New Delhi",
                    "pincode": "110001",
                    "districtname": "Central Delhi",
                    "placename": "Supreme Court",
                    "longitude": "77.2183",
                    "statename": "Delhi",
                    "latitude": "28.6369",
                    "accuracy": "3"
                }
            ]
        }
    },
    "{'pincode': 0}": {
        "error": "",
        "response": {
            "status": 200,
            "message": "Success",
            "noOfItems": 0,
            "result": []
        }
    }
}