{
    "{\n  \"q\": \"errada san miguel\"\n}": {
        "error": "",
        "response": "{\"data\":[]}"
    },
    "{'q': '32390'}": {
        "error": "",
        "response": {
            "results": []
        }
    },
    "{'q': 'Mexico City'}": {
        "error": "",
        "response": {
            "results": []
        }
    },
    "{'q': 'Mexico City neighborhoods'}": {
        "error": "",
        "response": {
            "results": []
        }
    },
    "{'q': 'Mexico City neighborhoods zip codes'}": {
        "error": "",
        "response": {
            "results": []
        }
    },
    "{'q': 'Puerto Vallarta'}": {
        "error": "",
        "response": {
            "results": [
                {
                    "zip_code": "42900",
                    "state": "Hidalgo",
                    "city": "",
                    "municipality": "Chapantongo",
                    "neighborhood_name": "Puerto Vallarta"
                },
                {
                    "zip_code": "48300",
                    "state": "Jalisco",
                    "city": "Puerto Vallarta",
                    "municipality": "Puerto Vallarta",
                    "neighborhood_name": "Puerto Vallarta Centro"
                },
                {
                    "zip_code": "48339",
                    "state": "Jalisco",
                    "city": "Puerto Vallarta",
                    "municipality": "Puerto Vallarta",
                    "neighborhood_name": "Puerto Vallarta (Lic. Gustavo D\u00edaz Ordaz)"
                }
            ]
        }
    },
    "{'q': 'Tulum'}": {
        "error": "",
        "response": {
            "results": [
                {
                    "zip_code": "77760",
                    "state": "Quintana Roo",
                    "city": "",
                    "municipality": "Tulum",
                    "neighborhood_name": "Tulum Centro"
                },
                {
                    "zip_code": "77762",
                    "state": "Quintana Roo",
                    "city": "",
                    "municipality": "Tulum",
                    "neighborhood_name": "Ya Ax Tulum"
                },
                {
                    "zip_code": "77763",
                    "state": "Quintana Roo",
                    "city": "",
                    "municipality": "Tulum",
                    "neighborhood_name": "Aldea Tulum"
                },
                {
                    "zip_code": "77764",
                    "state": "Quintana Roo",
                    "city": "",
                    "municipality": "Tulum",
                    "neighborhood_name": "Villas Tulum"
                }
            ]
        }
    },
    "{'q': 'errada san miguel'}": {
        "error": "",
        "response": {
            "results": [
                {
                    "zip_code": "20138",
                    "state": "Aguascalientes",
                    "city": "Aguascalientes",
                    "municipality": "Aguascalientes",
                    "neighborhood_name": "Cerrada San Miguel"
                }
            ]
        }
    },
    "{'q': '*'}": {
        "error": "",
        "response": {
            "results": []
        }
    },
    "{'q': 'off-the-beaten-path'}": {
        "error": "",
        "response": {
            "results": []
        }
    },
    "{'q': 'hidden gems'}": {
        "error": "",
        "response": {
            "results": []
        }
    },
    "{'q': 'undiscovered destinations'}": {
        "error": "",
        "response": {
            "results": []
        }
    },
    "{'q': 'unique locations'}": {
        "error": "",
        "response": {
            "results": []
        }
    },
    "{'q': '40.785091,-73.968285'}": {
        "error": "",
        "response": {
            "results": []
        }
    },
    "{'q': 'demographics'}": {
        "error": "",
        "response": {
            "results": []
        }
    },
    "{'q': 'population'}": {
        "error": "",
        "response": {
            "results": []
        }
    },
    "{'q': 'region'}": {
        "error": "",
        "response": {
            "results": [
                {
                    "zip_code": "27009",
                    "state": "Coahuila de Zaragoza",
                    "city": "Torre\u00f3n",
                    "municipality": "Torre\u00f3n",
                    "neighborhood_name": "Administraci\u00f3n Fiscal Regional Norte Centro"
                },
                {
                    "zip_code": "36545",
                    "state": "Guanajuato",
                    "city": "Irapuato",
                    "municipality": "Irapuato",
                    "neighborhood_name": "12 Regi\u00f3n Zona Militar"
                },
                {
                    "zip_code": "45138",
                    "state": "Jalisco",
                    "city": "Zapopan",
                    "municipality": "Zapopan",
                    "neighborhood_name": "V Regi\u00f3n Militar"
                },
                {
                    "zip_code": "61940",
                    "state": "Michoac\u00e1n de Ocampo",
                    "city": "Huetamo de N\u00fa\u00f1ez",
                    "municipality": "Huetamo",
                    "neighborhood_name": "Regional"
                },
                {
                    "zip_code": "68023",
                    "state": "Oaxaca",
                    "city": "Oaxaca de Ju\u00e1rez",
                    "municipality": "Oaxaca de Ju\u00e1rez",
                    "neighborhood_name": "7 Regiones"
                },
                {
                    "zip_code": "68023",
                    "state": "Oaxaca",
                    "city": "Oaxaca de Ju\u00e1rez",
                    "municipality": "Oaxaca de Ju\u00e1rez",
                    "neighborhood_name": "7 Regiones Ampliaci\u00f3n"
                },
                {
                    "zip_code": "68023",
                    "state": "Oaxaca",
                    "city": "Oaxaca de Ju\u00e1rez",
                    "municipality": "Oaxaca de Ju\u00e1rez",
                    "neighborhood_name": "Ampliaci\u00f3n Siete Regiones Parte Norte"
                },
                {
                    "zip_code": "80225",
                    "state": "Sinaloa",
                    "city": "Culiac\u00e1n Rosales",
                    "municipality": "Culiac\u00e1n",
                    "neighborhood_name": "Instituto Tecnol\u00f3gico Regional de Culiac\u00e1n"
                },
                {
                    "zip_code": "89108",
                    "state": "Tamaulipas",
                    "city": "Tampico",
                    "municipality": "Tampico",
                    "neighborhood_name": "Hospital Regional"
                },
                {
                    "zip_code": "89636",
                    "state": "Tamaulipas",
                    "city": "",
                    "municipality": "Altamira",
                    "neighborhood_name": "Nuevo CERESO Regional de Altamira"
                }
            ]
        }
    },
    "{'q': '123 Main Street, Colonia Juarez, Cuauhtemoc'}": {
        "error": "",
        "response": {
            "results": []
        }
    },
    "{'q': 'Colonia Juarez'}": {
        "error": "",
        "response": {
            "results": [
                {
                    "zip_code": "34486",
                    "state": "Durango",
                    "city": "",
                    "municipality": "San Juan del R\u00edo",
                    "neighborhood_name": "Colonia Benito Ju\u00e1rez"
                },
                {
                    "zip_code": "34743",
                    "state": "Durango",
                    "city": "",
                    "municipality": "Pe\u00f1\u00f3n Blanco",
                    "neighborhood_name": "Colonia Ju\u00e1rez"
                },
                {
                    "zip_code": "36210",
                    "state": "Guanajuato",
                    "city": "",
                    "municipality": "Romita",
                    "neighborhood_name": "Ejido Colonia Ju\u00e1rez"
                },
                {
                    "zip_code": "36210",
                    "state": "Guanajuato",
                    "city": "",
                    "municipality": "Romita",
                    "neighborhood_name": "Ejido Colonia Ju\u00e1rez (Alejandro Mata)"
                },
                {
                    "zip_code": "36210",
                    "state": "Guanajuato",
                    "city": "",
                    "municipality": "Romita",
                    "neighborhood_name": "El Taller (Ejido Colonia Ju\u00e1rez)"
                },
                {
                    "zip_code": "36210",
                    "state": "Guanajuato",
                    "city": "",
                    "municipality": "Romita",
                    "neighborhood_name": "Los Guti\u00e9rrez (Ejido Colonia Ju\u00e1rez)"
                },
                {
                    "zip_code": "50847",
                    "state": "M\u00e9xico",
                    "city": "",
                    "municipality": "Jiquipilco",
                    "neighborhood_name": "Loma Hidalgo Colonia Benito Ju\u00e1rez"
                },
                {
                    "zip_code": "58413",
                    "state": "Michoac\u00e1n de Ocampo",
                    "city": "",
                    "municipality": "Coeneo",
                    "neighborhood_name": "Colonia Benito Ju\u00e1rez (Los Charcos)"
                },
                {
                    "zip_code": "62765",
                    "state": "Morelos",
                    "city": "",
                    "municipality": "Emiliano Zapata",
                    "neighborhood_name": "Palo Escrito (Colonia Benito Ju\u00e1rez)"
                },
                {
                    "zip_code": "78600",
                    "state": "San Luis Potos\u00ed",
                    "city": "",
                    "municipality": "Salinas",
                    "neighborhood_name": "Las Colonias (Colonia Ju\u00e1rez)"
                }
            ]
        }
    },
    "{'q': 'Puebla'}": {
        "error": "",
        "response": {
            "results": [
                {
                    "zip_code": "21395",
                    "state": "Baja California",
                    "city": "Mexicali",
                    "municipality": "Mexicali",
                    "neighborhood_name": "Puebla"
                },
                {
                    "zip_code": "21395",
                    "state": "Baja California",
                    "city": "Mexicali",
                    "municipality": "Mexicali",
                    "neighborhood_name": "Valle de Puebla"
                },
                {
                    "zip_code": "21395",
                    "state": "Baja California",
                    "city": "Mexicali",
                    "municipality": "Mexicali",
                    "neighborhood_name": "\u00c1ngeles de Puebla"
                },
                {
                    "zip_code": "21395",
                    "state": "Baja California",
                    "city": "Mexicali",
                    "municipality": "Mexicali",
                    "neighborhood_name": "Rincones de Puebla"
                },
                {
                    "zip_code": "21395",
                    "state": "Baja California",
                    "city": "Mexicali",
                    "municipality": "Mexicali",
                    "neighborhood_name": "Sol de Puebla"
                },
                {
                    "zip_code": "21395",
                    "state": "Baja California",
                    "city": "Mexicali",
                    "municipality": "Mexicali",
                    "neighborhood_name": "Parajes de Puebla"
                },
                {
                    "zip_code": "21395",
                    "state": "Baja California",
                    "city": "Mexicali",
                    "municipality": "Mexicali",
                    "neighborhood_name": "Rincones de Puebla Segunda Secci\u00f3n"
                },
                {
                    "zip_code": "21395",
                    "state": "Baja California",
                    "city": "Mexicali",
                    "municipality": "Mexicali",
                    "neighborhood_name": "Misi\u00f3n de Puebla"
                },
                {
                    "zip_code": "24654",
                    "state": "Campeche",
                    "city": "",
                    "municipality": "Calakmul",
                    "neighborhood_name": "Puebla de Morelia"
                },
                {
                    "zip_code": "29872",
                    "state": "Chiapas",
                    "city": "",
                    "municipality": "Chenalh\u00f3",
                    "neighborhood_name": "Puebla"
                },
                {
                    "zip_code": "30194",
                    "state": "Chiapas",
                    "city": "",
                    "municipality": "Altamirano",
                    "neighborhood_name": "Puebla Viejo"
                },
                {
                    "zip_code": "30194",
                    "state": "Chiapas",
                    "city": "",
                    "municipality": "Altamirano",
                    "neighborhood_name": "Puebla (Rancho Nuevo)"
                },
                {
                    "zip_code": "30425",
                    "state": "Chiapas",
                    "city": "",
                    "municipality": "Cintalapa",
                    "neighborhood_name": "Nueva Puebla"
                },
                {
                    "zip_code": "25311",
                    "state": "Coahuila de Zaragoza",
                    "city": "",
                    "municipality": "Saltillo",
                    "neighborhood_name": "Puebla"
                },
                {
                    "zip_code": "15020",
                    "state": "Ciudad de M\u00e9xico",
                    "city": "Ciudad de M\u00e9xico",
                    "municipality": "Venustiano Carranza",
                    "neighborhood_name": "Puebla"
                },
                {
                    "zip_code": "34377",
                    "state": "Durango",
                    "city": "",
                    "municipality": "Durango",
                    "neighborhood_name": "Rodr\u00edguez Puebla"
                },
                {
                    "zip_code": "34555",
                    "state": "Durango",
                    "city": "",
                    "municipality": "Topia",
                    "neighborhood_name": "El Rinc\u00f3n de la Puebla"
                },
                {
                    "zip_code": "34555",
                    "state": "Durango",
                    "city": "",
                    "municipality": "Topia",
                    "neighborhood_name": "Los Llanos de la Puebla"
                },
                {
                    "zip_code": "43300",
                    "state": "Hidalgo",
                    "city": "",
                    "municipality": "Atotonilco el Grande",
                    "neighborhood_name": "La Puebla"
                },
                {
                    "zip_code": "58147",
                    "state": "Michoac\u00e1n de Ocampo",
                    "city": "Morelia",
                    "municipality": "Morelia",
                    "neighborhood_name": "Defensores de Puebla"
                },
                {
                    "zip_code": "72116",
                    "state": "Puebla",
                    "city": "Heroica Puebla de Zaragoza",
                    "municipality": "Puebla",
                    "neighborhood_name": "Las Fuentes de Puebla"
                },
                {
                    "zip_code": "72219",
                    "state": "Puebla",
                    "city": "Heroica Puebla de Zaragoza",
                    "municipality": "Puebla",
                    "neighborhood_name": "\u00c1ngeles de Puebla"
                },
                {
                    "zip_code": "72225",
                    "state": "Puebla",
                    "city": "Heroica Puebla de Zaragoza",
                    "municipality": "Puebla",
                    "neighborhood_name": "Parque Industrial Puebla 2000"
                },
                {
                    "zip_code": "72270",
                    "state": "Puebla",
                    "city": "Heroica Puebla de Zaragoza",
                    "municipality": "Puebla",
                    "neighborhood_name": "Puebla"
                },
                {
                    "zip_code": "72460",
                    "state": "Puebla",
                    "city": "Heroica Puebla de Zaragoza",
                    "municipality": "Puebla",
                    "neighborhood_name": "Club de Golf Puebla"
                },
                {
                    "zip_code": "72460",
                    "state": "Puebla",
                    "city": "Heroica Puebla de Zaragoza",
                    "municipality": "Puebla",
                    "neighborhood_name": "Centro Comercial Puebla"
                },
                {
                    "zip_code": "72470",
                    "state": "Puebla",
                    "city": "Heroica Puebla de Zaragoza",
                    "municipality": "Puebla",
                    "neighborhood_name": "Puebla Textil"
                },
                {
                    "zip_code": "72490",
                    "state": "Puebla",
                    "city": "Heroica Puebla de Zaragoza",
                    "municipality": "Puebla",
                    "neighborhood_name": "Granjas Puebla"
                },
                {
                    "zip_code": "72494",
                    "state": "Puebla",
                    "city": "Heroica Puebla de Zaragoza",
                    "municipality": "Puebla",
                    "neighborhood_name": "Los H\u00e9roes de Puebla II"
                },
                {
                    "zip_code": "72494",
                    "state": "Puebla",
                    "city": "Heroica Puebla de Zaragoza",
                    "municipality": "Puebla",
                    "neighborhood_name": "Victor Puebla"
                },
                {
                    "zip_code": "72500",
                    "state": "Puebla",
                    "city": "Heroica Puebla de Zaragoza",
                    "municipality": "Puebla",
                    "neighborhood_name": "Banco de Puebla"
                },
                {
                    "zip_code": "72520",
                    "state": "Puebla",
                    "city": "Heroica Puebla de Zaragoza",
                    "municipality": "Puebla",
                    "neighborhood_name": "H\u00e9roes de Puebla"
                },
                {
                    "zip_code": "72530",
                    "state": "Puebla",
                    "city": "Heroica Puebla de Zaragoza",
                    "municipality": "Puebla",
                    "neighborhood_name": "Puebla"
                },
                {
                    "zip_code": "72590",
                    "state": "Puebla",
                    "city": "Heroica Puebla de Zaragoza",
                    "municipality": "Puebla",
                    "neighborhood_name": "Los H\u00e9roes de Puebla"
                },
                {
                    "zip_code": "72700",
                    "state": "Puebla",
                    "city": "Cuautlancingo",
                    "municipality": "Cuautlancingo",
                    "neighborhood_name": "M\u00e9xico-Puebla"
                },
                {
                    "zip_code": "72826",
                    "state": "Puebla",
                    "city": "San Andr\u00e9s Cholula",
                    "municipality": "San Andr\u00e9s Cholula",
                    "neighborhood_name": "Puebla Blanca"
                },
                {
                    "zip_code": "73248",
                    "state": "Puebla",
                    "city": "",
                    "municipality": "Zihuateutla",
                    "neighborhood_name": "Puebla"
                },
                {
                    "zip_code": "74168",
                    "state": "Puebla",
                    "city": "",
                    "municipality": "Huejotzingo",
                    "neighborhood_name": "Puebla (Hermanos Serd\u00e1n)"
                },
                {
                    "zip_code": "75768",
                    "state": "Puebla",
                    "city": "Tehuac\u00e1n",
                    "municipality": "Tehuac\u00e1n",
                    "neighborhood_name": "Puebla"
                },
                {
                    "zip_code": "79647",
                    "state": "San Luis Potos\u00ed",
                    "city": "",
                    "municipality": "Rioverde",
                    "neighborhood_name": "San Francisco de la Puebla"
                },
                {
                    "zip_code": "79690",
                    "state": "San Luis Potos\u00ed",
                    "city": "",
                    "municipality": "San Ciro de Acosta",
                    "neighborhood_name": "La Puebla"
                },
                {
                    "zip_code": "83716",
                    "state": "Sonora",
                    "city": "",
                    "municipality": "Caborca",
                    "neighborhood_name": "El Puebla"
                },
                {
                    "zip_code": "90117",
                    "state": "Tlaxcala",
                    "city": "",
                    "municipality": "Tlaxcala",
                    "neighborhood_name": "La Garita de Puebla"
                },
                {
                    "zip_code": "90139",
                    "state": "Tlaxcala",
                    "city": "",
                    "municipality": "Santa Ana Nopalucan",
                    "neighborhood_name": "De Puebla"
                },
                {
                    "zip_code": "95636",
                    "state": "Veracruz de Ignacio de la Llave",
                    "city": "",
                    "municipality": "Santiago Sochiapan",
                    "neighborhood_name": "Puebla"
                },
                {
                    "zip_code": "96670",
                    "state": "Veracruz de Ignacio de la Llave",
                    "city": "Agua Dulce",
                    "municipality": "Agua Dulce",
                    "neighborhood_name": "Puebla"
                },
                {
                    "zip_code": "99183",
                    "state": "Zacatecas",
                    "city": "",
                    "municipality": "Fresnillo",
                    "neighborhood_name": "Puebla del Palmar (El Membrillo)"
                }
            ]
        }
    },
    "{'q': 'M\u00e9xico, Aguascalientes'}": {
        "error": "",
        "response": {
            "results": []
        }
    },
    "{'q': 'M\u00e9xico'}": {
        "error": "",
        "response": {
            "results": []
        }
    },
    "{'q': 'low crime rate, good security measures'}": {
        "error": "",
        "response": {
            "results": []
        }
    },
    "{'q': 'Ju\u00e1rez crime rate, safety ratings'}": {
        "error": "",
        "response": {
            "results": []
        }
    },
    "{'q': 'Ju\u00e1rez neighborhood safety ratings'}": {
        "error": "",
        "response": {
            "results": []
        }
    },
    "{'q': 'Ciudad de M\u00e9xico'}": {
        "error": "",
        "response": {
            "results": []
        }
    },
    "{'q': '90000'}": {
        "error": "",
        "response": {
            "results": []
        }
    },
    "{'q': '00002'}": {
        "error": "",
        "response": {
            "results": []
        }
    },
    "{'q': 'other cities in Mexico'}": {
        "error": "",
        "response": {
            "results": []
        }
    },
    "{'q': 'Errada san miguel'}": {
        "error": "",
        "response": {
            "results": [
                {
                    "zip_code": "20138",
                    "state": "Aguascalientes",
                    "city": "Aguascalientes",
                    "municipality": "Aguascalientes",
                    "neighborhood_name": "Cerrada San Miguel"
                }
            ]
        }
    },
    "{'q': 'Jalisco'}": {
        "error": "",
        "response": {
            "results": [
                {
                    "zip_code": "21627",
                    "state": "Baja California",
                    "city": "",
                    "municipality": "Mexicali",
                    "neighborhood_name": "Jalisco"
                },
                {
                    "zip_code": "22116",
                    "state": "Baja California",
                    "city": "Tijuana",
                    "municipality": "Tijuana",
                    "neighborhood_name": "Jalisco"
                },
                {
                    "zip_code": "22850",
                    "state": "Baja California",
                    "city": "Ensenada",
                    "municipality": "Ensenada",
                    "neighborhood_name": "Jalisco"
                },
                {
                    "zip_code": "23844",
                    "state": "Baja California Sur",
                    "city": "",
                    "municipality": "Comond\u00fa",
                    "neighborhood_name": "Jalisco"
                },
                {
                    "zip_code": "30185",
                    "state": "Chiapas",
                    "city": "",
                    "municipality": "Las Margaritas",
                    "neighborhood_name": "Jalisco"
                },
                {
                    "zip_code": "30190",
                    "state": "Chiapas",
                    "city": "",
                    "municipality": "Altamirano",
                    "neighborhood_name": "Jalisco"
                },
                {
                    "zip_code": "33983",
                    "state": "Chihuahua",
                    "city": "Jos\u00e9 Mariano Jim\u00e9nez",
                    "municipality": "Jim\u00e9nez",
                    "neighborhood_name": "Del Jalisco"
                },
                {
                    "zip_code": "27438",
                    "state": "Coahuila de Zaragoza",
                    "city": "",
                    "municipality": "Torre\u00f3n",
                    "neighborhood_name": "Jalisco"
                },
                {
                    "zip_code": "34170",
                    "state": "Durango",
                    "city": "Victoria de Durango",
                    "municipality": "Durango",
                    "neighborhood_name": "Jalisco"
                },
                {
                    "zip_code": "35696",
                    "state": "Durango",
                    "city": "Santa Mar\u00eda del Oro",
                    "municipality": "El Oro",
                    "neighborhood_name": "Jalisco"
                },
                {
                    "zip_code": "36626",
                    "state": "Guanajuato",
                    "city": "Irapuato",
                    "municipality": "Irapuato",
                    "neighborhood_name": "Jalisco"
                },
                {
                    "zip_code": "45412",
                    "state": "Jalisco",
                    "city": "Tonal\u00e1",
                    "municipality": "Tonal\u00e1",
                    "neighborhood_name": "Jalisco 1a. Secci\u00f3n"
                },
                {
                    "zip_code": "45412",
                    "state": "Jalisco",
                    "city": "Tonal\u00e1",
                    "municipality": "Tonal\u00e1",
                    "neighborhood_name": "Jalisco 2a. Secci\u00f3n"
                },
                {
                    "zip_code": "45640",
                    "state": "Jalisco",
                    "city": "Tlajomulco de Z\u00fa\u00f1iga",
                    "municipality": "Tlajomulco de Z\u00fa\u00f1iga",
                    "neighborhood_name": "Huertas Productivas de Jalisco"
                },
                {
                    "zip_code": "45683",
                    "state": "Jalisco",
                    "city": "",
                    "municipality": "El Salto",
                    "neighborhood_name": "Galaxia Bonito Jalisco"
                },
                {
                    "zip_code": "45713",
                    "state": "Jalisco",
                    "city": "",
                    "municipality": "Acatl\u00e1n de Ju\u00e1rez",
                    "neighborhood_name": "Centro L\u00f3gistico Jalisco"
                },
                {
                    "zip_code": "45777",
                    "state": "Jalisco",
                    "city": "",
                    "municipality": "Zacoalco de Torres",
                    "neighborhood_name": "Centro Logistico Jalisco II"
                },
                {
                    "zip_code": "45806",
                    "state": "Jalisco",
                    "city": "Jocotepec",
                    "municipality": "Jocotepec",
                    "neighborhood_name": "Jalisco"
                },
                {
                    "zip_code": "47540",
                    "state": "Jalisco",
                    "city": "",
                    "municipality": "Ojuelos de Jalisco",
                    "neighborhood_name": "Ojuelos de Jalisco"
                },
                {
                    "zip_code": "49055",
                    "state": "Jalisco",
                    "city": "Ciudad Guzm\u00e1n",
                    "municipality": "Zapotl\u00e1n el Grande",
                    "neighborhood_name": "Jalisco"
                },
                {
                    "zip_code": "49093",
                    "state": "Jalisco",
                    "city": "Ciudad Guzm\u00e1n",
                    "municipality": "Zapotl\u00e1n el Grande",
                    "neighborhood_name": "Pueblo de Jalisco"
                },
                {
                    "zip_code": "67599",
                    "state": "Nuevo Le\u00f3n",
                    "city": "Montemorelos",
                    "municipality": "Montemorelos",
                    "neighborhood_name": "Jalisco"
                },
                {
                    "zip_code": "67850",
                    "state": "Nuevo Le\u00f3n",
                    "city": "",
                    "municipality": "Galeana",
                    "neighborhood_name": "Barrio de Jalisco (Jalisco)"
                },
                {
                    "zip_code": "70760",
                    "state": "Oaxaca",
                    "city": "Santo Domingo Tehuantepec",
                    "municipality": "Santo Domingo Tehuantepec",
                    "neighborhood_name": "Jalisco"
                },
                {
                    "zip_code": "78294",
                    "state": "San Luis Potos\u00ed",
                    "city": "San Luis Potos\u00ed",
                    "municipality": "San Luis Potos\u00ed",
                    "neighborhood_name": "Garita de Jalisco"
                },
                {
                    "zip_code": "80954",
                    "state": "Sinaloa",
                    "city": "",
                    "municipality": "Mocorito",
                    "neighborhood_name": "Los Altos de Jalisco"
                },
                {
                    "zip_code": "83447",
                    "state": "Sonora",
                    "city": "San Luis R\u00edo Colorado",
                    "municipality": "San Luis R\u00edo Colorado",
                    "neighborhood_name": "Jalisco"
                },
                {
                    "zip_code": "86946",
                    "state": "Tabasco",
                    "city": "",
                    "municipality": "Balanc\u00e1n",
                    "neighborhood_name": "Jalisco"
                },
                {
                    "zip_code": "89893",
                    "state": "Tamaulipas",
                    "city": "Ciudad Mante",
                    "municipality": "El Mante",
                    "neighborhood_name": "Jalisco"
                },
                {
                    "zip_code": "92942",
                    "state": "Veracruz de Ignacio de la Llave",
                    "city": "",
                    "municipality": "Castillo de Teayo",
                    "neighborhood_name": "Nuevo Jalisco"
                },
                {
                    "zip_code": "98914",
                    "state": "Zacatecas",
                    "city": "",
                    "municipality": "Villa Garc\u00eda",
                    "neighborhood_name": "La Puerta de Jalisco"
                },
                {
                    "zip_code": "99260",
                    "state": "Zacatecas",
                    "city": "",
                    "municipality": "Chalchihuites",
                    "neighborhood_name": "Jalisco"
                }
            ]
        }
    },
    "{'q': 'Condesa, Mexico City'}": {
        "error": "",
        "response": {
            "results": []
        }
    },
    "{'q': 'Roma, Mexico City'}": {
        "error": "",
        "response": {
            "results": []
        }
    },
    "{'q': 'Condesa'}": {
        "error": "",
        "response": {
            "results": [
                {
                    "zip_code": "21395",
                    "state": "Baja California",
                    "city": "Mexicali",
                    "municipality": "Mexicali",
                    "neighborhood_name": "Parque Industrial Condesa"
                },
                {
                    "zip_code": "21395",
                    "state": "Baja California",
                    "city": "Mexicali",
                    "municipality": "Mexicali",
                    "neighborhood_name": "La Condesa"
                },
                {
                    "zip_code": "22640",
                    "state": "Baja California",
                    "city": "Tijuana",
                    "municipality": "Tijuana",
                    "neighborhood_name": "Condesa"
                },
                {
                    "zip_code": "29018",
                    "state": "Chiapas",
                    "city": "Tuxtla Guti\u00e9rrez",
                    "municipality": "Tuxtla Guti\u00e9rrez",
                    "neighborhood_name": "La Condesa"
                },
                {
                    "zip_code": "32320",
                    "state": "Chihuahua",
                    "city": "Ju\u00e1rez",
                    "municipality": "Ju\u00e1rez",
                    "neighborhood_name": "Condesa"
                },
                {
                    "zip_code": "25038",
                    "state": "Coahuila de Zaragoza",
                    "city": "Saltillo",
                    "municipality": "Saltillo",
                    "neighborhood_name": "Condesa"
                },
                {
                    "zip_code": "06140",
                    "state": "Ciudad de M\u00e9xico",
                    "city": "Ciudad de M\u00e9xico",
                    "municipality": "Cuauht\u00e9moc",
                    "neighborhood_name": "Condesa"
                },
                {
                    "zip_code": "06170",
                    "state": "Ciudad de M\u00e9xico",
                    "city": "Ciudad de M\u00e9xico",
                    "municipality": "Cuauht\u00e9moc",
                    "neighborhood_name": "Hip\u00f3dromo Condesa"
                },
                {
                    "zip_code": "37440",
                    "state": "Guanajuato",
                    "city": "Le\u00f3n de los Aldama",
                    "municipality": "Le\u00f3n",
                    "neighborhood_name": "La Condesa"
                },
                {
                    "zip_code": "38083",
                    "state": "Guanajuato",
                    "city": "Celaya",
                    "municipality": "Celaya",
                    "neighborhood_name": "La Condesa"
                },
                {
                    "zip_code": "38725",
                    "state": "Guanajuato",
                    "city": "",
                    "municipality": "Tarimoro",
                    "neighborhood_name": "San Nicol\u00e1s de La Condesa"
                },
                {
                    "zip_code": "39690",
                    "state": "Guerrero",
                    "city": "Acapulco de Ju\u00e1rez",
                    "municipality": "Acapulco de Ju\u00e1rez",
                    "neighborhood_name": "Condesa"
                },
                {
                    "zip_code": "39699",
                    "state": "Guerrero",
                    "city": "Acapulco de Ju\u00e1rez",
                    "municipality": "Acapulco de Ju\u00e1rez",
                    "neighborhood_name": "Villas Condesa"
                },
                {
                    "zip_code": "42039",
                    "state": "Hidalgo",
                    "city": "Pachuca de Soto",
                    "municipality": "Pachuca de Soto",
                    "neighborhood_name": "La Condesa"
                },
                {
                    "zip_code": "43630",
                    "state": "Hidalgo",
                    "city": "Tulancingo",
                    "municipality": "Tulancingo de Bravo",
                    "neighborhood_name": "Privada Condesa"
                },
                {
                    "zip_code": "52965",
                    "state": "M\u00e9xico",
                    "city": "Ciudad Adolfo L\u00f3pez Mateos",
                    "municipality": "Atizap\u00e1n de Zaragoza",
                    "neighborhood_name": "La Condesa"
                },
                {
                    "zip_code": "60997",
                    "state": "Michoac\u00e1n de Ocampo",
                    "city": "Las Guacamayas",
                    "municipality": "L\u00e1zaro C\u00e1rdenas",
                    "neighborhood_name": "Condesa"
                },
                {
                    "zip_code": "64880",
                    "state": "Nuevo Le\u00f3n",
                    "city": "Monterrey",
                    "municipality": "Monterrey",
                    "neighborhood_name": "La Condesa"
                },
                {
                    "zip_code": "67130",
                    "state": "Nuevo Le\u00f3n",
                    "city": "Guadalupe",
                    "municipality": "Guadalupe",
                    "neighborhood_name": "La Condesa"
                },
                {
                    "zip_code": "67294",
                    "state": "Nuevo Le\u00f3n",
                    "city": "Ciudad Benito Ju\u00e1rez",
                    "municipality": "Ju\u00e1rez",
                    "neighborhood_name": "Allegra Valle Condesa I"
                },
                {
                    "zip_code": "67294",
                    "state": "Nuevo Le\u00f3n",
                    "city": "Ciudad Benito Ju\u00e1rez",
                    "municipality": "Ju\u00e1rez",
                    "neighborhood_name": "Allegra Valle Condesa II"
                },
                {
                    "zip_code": "67294",
                    "state": "Nuevo Le\u00f3n",
                    "city": "Ciudad Benito Ju\u00e1rez",
                    "municipality": "Ju\u00e1rez",
                    "neighborhood_name": "Valle Condesa I"
                },
                {
                    "zip_code": "67294",
                    "state": "Nuevo Le\u00f3n",
                    "city": "Ciudad Benito Ju\u00e1rez",
                    "municipality": "Ju\u00e1rez",
                    "neighborhood_name": "Valle Condesa II"
                },
                {
                    "zip_code": "67294",
                    "state": "Nuevo Le\u00f3n",
                    "city": "Ciudad Benito Ju\u00e1rez",
                    "municipality": "Ju\u00e1rez",
                    "neighborhood_name": "Valle Condesa III"
                },
                {
                    "zip_code": "67294",
                    "state": "Nuevo Le\u00f3n",
                    "city": "Ciudad Benito Ju\u00e1rez",
                    "municipality": "Ju\u00e1rez",
                    "neighborhood_name": "Valle Condesa Sector Britania"
                },
                {
                    "zip_code": "67294",
                    "state": "Nuevo Le\u00f3n",
                    "city": "Ciudad Benito Ju\u00e1rez",
                    "municipality": "Ju\u00e1rez",
                    "neighborhood_name": "Terra Park Condesa"
                },
                {
                    "zip_code": "67463",
                    "state": "Nuevo Le\u00f3n",
                    "city": "",
                    "municipality": "Cadereyta Jim\u00e9nez",
                    "neighborhood_name": "La Condesa"
                },
                {
                    "zip_code": "72014",
                    "state": "Puebla",
                    "city": "Heroica Puebla de Zaragoza",
                    "municipality": "Puebla",
                    "neighborhood_name": "La Condesa"
                },
                {
                    "zip_code": "76125",
                    "state": "Quer\u00e9taro",
                    "city": "Santiago de Quer\u00e9taro",
                    "municipality": "Quer\u00e9taro",
                    "neighborhood_name": "La Condesa"
                },
                {
                    "zip_code": "78176",
                    "state": "San Luis Potos\u00ed",
                    "city": "San Luis Potos\u00ed",
                    "municipality": "San Luis Potos\u00ed",
                    "neighborhood_name": "Condesa"
                },
                {
                    "zip_code": "80100",
                    "state": "Sinaloa",
                    "city": "Culiac\u00e1n Rosales",
                    "municipality": "Culiac\u00e1n",
                    "neighborhood_name": "Condesa"
                },
                {
                    "zip_code": "87454",
                    "state": "Tamaulipas",
                    "city": "Heroica Matamoros",
                    "municipality": "Matamoros",
                    "neighborhood_name": "Condesa"
                },
                {
                    "zip_code": "88980",
                    "state": "Tamaulipas",
                    "city": "Ciudad R\u00edo Bravo",
                    "municipality": "R\u00edo Bravo",
                    "neighborhood_name": "Condesa"
                },
                {
                    "zip_code": "94286",
                    "state": "Veracruz de Ignacio de la Llave",
                    "city": "Boca del R\u00edo",
                    "municipality": "Boca del R\u00edo",
                    "neighborhood_name": "Rivera de la Condesa"
                },
                {
                    "zip_code": "94286",
                    "state": "Veracruz de Ignacio de la Llave",
                    "city": "Boca del R\u00edo",
                    "municipality": "Boca del R\u00edo",
                    "neighborhood_name": "Casa de la Condesa de Malibr\u00e1n"
                },
                {
                    "zip_code": "97370",
                    "state": "Yucat\u00e1n",
                    "city": "Kanas\u00edn",
                    "municipality": "Kanas\u00edn",
                    "neighborhood_name": "Condesa"
                },
                {
                    "zip_code": "98612",
                    "state": "Zacatecas",
                    "city": "Guadalupe",
                    "municipality": "Guadalupe",
                    "neighborhood_name": "La Condesa"
                }
            ]
        }
    },
    "{'q': 'Polanco'}": {
        "error": "",
        "response": {
            "results": [
                {
                    "zip_code": "33413",
                    "state": "Chihuahua",
                    "city": "",
                    "municipality": "Batopilas de Manuel G\u00f3mez Mor\u00edn",
                    "neighborhood_name": "Polanco"
                },
                {
                    "zip_code": "11510",
                    "state": "Ciudad de M\u00e9xico",
                    "city": "Ciudad de M\u00e9xico",
                    "municipality": "Miguel Hidalgo",
                    "neighborhood_name": "Polanco I Secci\u00f3n"
                },
                {
                    "zip_code": "11530",
                    "state": "Ciudad de M\u00e9xico",
                    "city": "Ciudad de M\u00e9xico",
                    "municipality": "Miguel Hidalgo",
                    "neighborhood_name": "Polanco II Secci\u00f3n"
                },
                {
                    "zip_code": "11540",
                    "state": "Ciudad de M\u00e9xico",
                    "city": "Ciudad de M\u00e9xico",
                    "municipality": "Miguel Hidalgo",
                    "neighborhood_name": "Polanco III Secci\u00f3n"
                },
                {
                    "zip_code": "11550",
                    "state": "Ciudad de M\u00e9xico",
                    "city": "Ciudad de M\u00e9xico",
                    "municipality": "Miguel Hidalgo",
                    "neighborhood_name": "Polanco IV Secci\u00f3n"
                },
                {
                    "zip_code": "11560",
                    "state": "Ciudad de M\u00e9xico",
                    "city": "Ciudad de M\u00e9xico",
                    "municipality": "Miguel Hidalgo",
                    "neighborhood_name": "Polanco V Secci\u00f3n"
                },
                {
                    "zip_code": "37549",
                    "state": "Guanajuato",
                    "city": "Le\u00f3n de los Aldama",
                    "municipality": "Le\u00f3n",
                    "neighborhood_name": "Popular Polanco"
                },
                {
                    "zip_code": "43628",
                    "state": "Hidalgo",
                    "city": "Tulancingo",
                    "municipality": "Tulancingo de Bravo",
                    "neighborhood_name": "Polanco"
                },
                {
                    "zip_code": "44960",
                    "state": "Jalisco",
                    "city": "Guadalajara",
                    "municipality": "Guadalajara",
                    "neighborhood_name": "Lomas de Polanco"
                },
                {
                    "zip_code": "44960",
                    "state": "Jalisco",
                    "city": "Guadalajara",
                    "municipality": "Guadalajara",
                    "neighborhood_name": "Polanco Oriente"
                },
                {
                    "zip_code": "49303",
                    "state": "Jalisco",
                    "city": "Sayula",
                    "municipality": "Sayula",
                    "neighborhood_name": "Polanco"
                },
                {
                    "zip_code": "60995",
                    "state": "Michoac\u00e1n de Ocampo",
                    "city": "Las Guacamayas",
                    "municipality": "L\u00e1zaro C\u00e1rdenas",
                    "neighborhood_name": "Polanco"
                },
                {
                    "zip_code": "67140",
                    "state": "Nuevo Le\u00f3n",
                    "city": "Guadalupe",
                    "municipality": "Guadalupe",
                    "neighborhood_name": "Polanco"
                },
                {
                    "zip_code": "67140",
                    "state": "Nuevo Le\u00f3n",
                    "city": "Guadalupe",
                    "municipality": "Guadalupe",
                    "neighborhood_name": "Polanco Oriente"
                },
                {
                    "zip_code": "78220",
                    "state": "San Luis Potos\u00ed",
                    "city": "San Luis Potos\u00ed",
                    "municipality": "San Luis Potos\u00ed",
                    "neighborhood_name": "Polanco"
                },
                {
                    "zip_code": "85213",
                    "state": "Sonora",
                    "city": "",
                    "municipality": "Cajeme",
                    "neighborhood_name": "Alfonso Polanco"
                },
                {
                    "zip_code": "88710",
                    "state": "Tamaulipas",
                    "city": "Reynosa",
                    "municipality": "Reynosa",
                    "neighborhood_name": "Polanco"
                }
            ]
        }
    },
    "{'q': 'Coyoacan'}": {
        "error": "",
        "response": {
            "results": [
                {
                    "zip_code": "30427",
                    "state": "Chiapas",
                    "city": "",
                    "municipality": "Cintalapa",
                    "neighborhood_name": "Nuevo Coyoac\u00e1n"
                },
                {
                    "zip_code": "32408",
                    "state": "Chihuahua",
                    "city": "Ju\u00e1rez",
                    "municipality": "Ju\u00e1rez",
                    "neighborhood_name": "Jardines de Coyoac\u00e1n"
                },
                {
                    "zip_code": "04000",
                    "state": "Ciudad de M\u00e9xico",
                    "city": "Ciudad de M\u00e9xico",
                    "municipality": "Coyoac\u00e1n",
                    "neighborhood_name": "Villa Coyoac\u00e1n"
                },
                {
                    "zip_code": "04810",
                    "state": "Ciudad de M\u00e9xico",
                    "city": "Ciudad de M\u00e9xico",
                    "municipality": "Coyoac\u00e1n",
                    "neighborhood_name": "Prados de Coyoac\u00e1n"
                },
                {
                    "zip_code": "04890",
                    "state": "Ciudad de M\u00e9xico",
                    "city": "Ciudad de M\u00e9xico",
                    "municipality": "Coyoac\u00e1n",
                    "neighborhood_name": "Jardines de Coyoac\u00e1n"
                },
                {
                    "zip_code": "04899",
                    "state": "Ciudad de M\u00e9xico",
                    "city": "Ciudad de M\u00e9xico",
                    "municipality": "Coyoac\u00e1n",
                    "neighborhood_name": "El Parque de Coyoac\u00e1n"
                },
                {
                    "zip_code": "04938",
                    "state": "Ciudad de M\u00e9xico",
                    "city": "Ciudad de M\u00e9xico",
                    "municipality": "Coyoac\u00e1n",
                    "neighborhood_name": "Campestre Coyoac\u00e1n"
                },
                {
                    "zip_code": "04970",
                    "state": "Ciudad de M\u00e9xico",
                    "city": "Ciudad de M\u00e9xico",
                    "municipality": "Coyoac\u00e1n",
                    "neighborhood_name": "Haciendas de Coyoac\u00e1n"
                },
                {
                    "zip_code": "14310",
                    "state": "Ciudad de M\u00e9xico",
                    "city": "Ciudad de M\u00e9xico",
                    "municipality": "Tlalpan",
                    "neighborhood_name": "Floresta Coyoac\u00e1n"
                },
                {
                    "zip_code": "14340",
                    "state": "Ciudad de M\u00e9xico",
                    "city": "Ciudad de M\u00e9xico",
                    "municipality": "Tlalpan",
                    "neighborhood_name": "Vergel de Coyoac\u00e1n"
                },
                {
                    "zip_code": "36987",
                    "state": "Guanajuato",
                    "city": "",
                    "municipality": "Abasolo",
                    "neighborhood_name": "Coyoac\u00e1n de Vargas (Faustino Vargas)"
                },
                {
                    "zip_code": "37278",
                    "state": "Guanajuato",
                    "city": "Le\u00f3n de los Aldama",
                    "municipality": "Le\u00f3n",
                    "neighborhood_name": "Residencial Coyoac\u00e1n"
                },
                {
                    "zip_code": "64510",
                    "state": "Nuevo Le\u00f3n",
                    "city": "Monterrey",
                    "municipality": "Monterrey",
                    "neighborhood_name": "Coyoac\u00e1n"
                }
            ]
        }
    },
    "{'q': 'neighborhoods in Mexico City'}": {
        "error": "",
        "response": {
            "results": []
        }
    },
    "{'q': '13000'}": {
        "error": "",
        "response": {
            "results": []
        }
    },
    "{'q': '13200'}": {
        "error": "",
        "response": {
            "results": []
        }
    },
    "{'q': '12345'}": {
        "error": "",
        "response": {
            "results": []
        }
    },
    "{'q': '6789'}": {
        "error": "",
        "response": {
            "results": []
        }
    },
    "{'q': 'cities in Mexico'}": {
        "error": "",
        "response": {
            "results": []
        }
    },
    "{'q': '9003'}": {
        "error": "",
        "response": {
            "results": []
        }
    },
    "{'q': '9002'}": {
        "error": "",
        "response": {
            "results": []
        }
    },
    "{'q': '9001'}": {
        "error": "",
        "response": {
            "results": []
        }
    },
    "{'q': 'neighborhood'}": {
        "error": "",
        "response": {
            "results": []
        }
    },
    "{'q': 'Villa Jacarandas'}": {
        "error": "",
        "response": {
            "results": [
                {
                    "zip_code": "32390",
                    "state": "Chihuahua",
                    "city": "Ju\u00e1rez",
                    "municipality": "Ju\u00e1rez",
                    "neighborhood_name": "Villa Jacarandas"
                },
                {
                    "zip_code": "27110",
                    "state": "Coahuila de Zaragoza",
                    "city": "Torre\u00f3n",
                    "municipality": "Torre\u00f3n",
                    "neighborhood_name": "Villa Jacarandas"
                },
                {
                    "zip_code": "34199",
                    "state": "Durango",
                    "city": "Victoria de Durango",
                    "municipality": "Durango",
                    "neighborhood_name": "Villa Jacarandas"
                },
                {
                    "zip_code": "36255",
                    "state": "Guanajuato",
                    "city": "Marfil",
                    "municipality": "Guanajuato",
                    "neighborhood_name": "Villa Jacarandas"
                },
                {
                    "zip_code": "37550",
                    "state": "Guanajuato",
                    "city": "Le\u00f3n de los Aldama",
                    "municipality": "Le\u00f3n",
                    "neighborhood_name": "Villas Jacarandas"
                },
                {
                    "zip_code": "78136",
                    "state": "San Luis Potos\u00ed",
                    "city": "San Luis Potos\u00ed",
                    "municipality": "San Luis Potos\u00ed",
                    "neighborhood_name": "Villas de Jacarandas"
                },
                {
                    "zip_code": "79656",
                    "state": "San Luis Potos\u00ed",
                    "city": "",
                    "municipality": "Ciudad Fern\u00e1ndez",
                    "neighborhood_name": "Villa de Jacarandas"
                }
            ]
        }
    },
    "{'q': 'Avenida Insurgentes'}": {
        "error": "",
        "response": "[]"
    },
    "{'q': 'Avenida Insurgentes CDMX'}": {
        "error": "",
        "response": "[]"
    },
    "{'q': 'Avenida Insurgentes Sur, Colonia Roma Norte, CDMX'}": {
        "error": "",
        "response": "[]"
    },
    "{'q': 'Glorieta de los Insurgentes, Zona Rosa, CDMX'}": {
        "error": "",
        "response": "[]"
    }
}